[
    {
        "Altitude(m)": 612502.2164114631,
        "Argument of Periapsis(deg)": 0.0,
        "Eccentricity": 0.0,
        "Inclination(deg)": 60.0,
        "Latitude(deg)": -28.136043691535903,
        "Longitude(deg)": 12.148303301241745,
        "Mean Anomaly(deg)": -32.72730000000001,
        "RAAN(deg)": 130.0,
        "Satellite Name": "Test1 592",
        "Satellite Number": 592,
        "Semi-Major Axis(m)": 6980739.136638005,
        "Time(s)": 0
    },
    {
        "Altitude(m)": 612308.6638430604,
        "Argument of Periapsis(deg)": 0.00010418945913296404,
        "Eccentricity": 0.0,
        "Inclination(deg)": 60.0,
        "Latitude(deg)": -27.62309837351558,
        "Longitude(deg)": 12.501776519798401,
        "Mean Anomaly(deg)": -32.10719385453816,
        "RAAN(deg)": 129.99957995086024,
        "Satellite Name": "Test1 592",
        "Satellite Number": 592,
        "Semi-Major Axis(m)": 6980739.136638005,
        "Time(s)": 10
    }
]